SHIYAN-24C 01           
1 58650U 23206A   26068.89348774  .00002076  00000+0  18089-3 0  9992
2 58650  97.3976  41.7846 0003675 132.3262 227.8273 14.97903598120444
STARLINK-34291          
1 64359U 25126R   26068.29385654  .00002043  00000+0  17897-3 0  9990
2 64359  70.0032  35.4075 0002787 257.6195 102.4652 14.98331543 40627
